STAR ONE C4             
1 40733U 15034B   18335.99772996 -.00000271  00000-0  00000+0 0  9998
2 40733   0.0352  50.3174 0002805 253.7185  55.9520  1.00270233 12428
INTELSAT 34 (IS-34)     
1 40874U 15039A   18336.95491056 -.00000290  00000-0  00000+0 0  9992
2 40874   0.0555 101.4691 0002942 266.4064 352.1433  1.00272004 12074
EUTELSAT 8 WEST B       
1 40875U 15039B   18336.82309283 -.00000070  00000-0  00000+0 0  9995
2 40875   0.0660  13.4421 0003061 233.1925 113.3471  1.00272828 12089
GSAT-6                  
1 40880U 15041A   18336.57087681 -.00000171  00000-0  00000-0 0  9994
2 40880   0.1032  98.4495 0010266 166.6242  94.8230  1.00271711 12042
INMARSAT 5-F3           
1 40882U 15042A   18337.30090704  .00000046  00000-0  00000+0 0  9998
2 40882   0.0208 323.6285 0000246  35.3483   1.0232  1.00271149 11950
TJS-1                   
1 40892U 15046A   18337.71510593 -.00000160  00000-0  10000-3 0  9994
2 40892   0.0274 266.8591 0007810  87.0735 130.9672  1.00271526 11959
EXPRESS-AM8             
1 40895U 15048A   18336.96350159 -.00000117  00000-0  00000+0 0  9992
2 40895   0.0168 227.7449 0000615  41.6596 135.2055  1.00271024 11775
SKY MUSTER (NBN1A)      
1 40940U 15054A   18336.92250066 -.00000284  00000-0  00000+0 0  9997
2 40940   0.0182 309.4639 0001699 308.4605 286.1219  1.00271384 11675
ARSAT 2                 
1 40941U 15054B   18337.02552085 -.00000230  00000-0  00000+0 0  9997
2 40941   0.0188  86.9225 0001510 164.7457 108.3154  1.00270129 11714
MORELOS 3               
1 40946U 15056A   18336.02901144 -.00000057  00000-0  00000+0 0  9994
2 40946   5.6895 328.2447 0001600 347.1544  12.7880  1.00271293 11679
APSTAR 9                
1 40982U 15059A   18336.92267513 -.00000271  00000-0  00000+0 0  9999
2 40982   0.0415  75.8451 0001919 198.8120 271.2342  1.00269318 11546
TURKSAT 4B              
1 40984U 15060A   18336.66254330  .00000110  00000-0  00000+0 0  9998
2 40984   0.0188 352.2977 0002060 262.7880 104.9057  1.00268515 11501
CHINASAT 2C (ZX 2C)     
1 41021U 15063A   18337.56130878 -.00000327  00000-0  00000+0 0  9995
2 41021   0.0517  85.1812 0003835 243.2151  49.3986  1.00267974 11417
GSAT-15                 
1 41028U 15065A   18336.54203090 -.00000264  00000-0  00000-0 0  9999
2 41028   0.0337 274.5753 0002626 315.0724 130.3437  1.00270195 11234
BADR-7 (ARABSAT-6B)     
1 41029U 15065B   18336.72901899  .00000139  00000-0  00000-0 0  9992
2 41029   0.0498 264.9673 0005826 338.7036 116.2833  1.00270724 11152
LAOSAT 1                
1 41034U 15067A   18337.44240728 -.00000347  00000-0  00000+0 0  9998
2 41034   0.0393 145.7552 0002498  74.7743 139.4658  1.00270154 11247
TELSTAR 12V             
1 41036U 15068A   18336.84262914 -.00000124  00000-0  00000-0 0  9999
2 41036   0.0174   4.1329 0001893 257.6809  98.1788  1.00271856 11019
CHINASAT 1C (ZX 1C)     
1 41103U 15073A   18336.91081102 -.00000156  00000-0  00000-0 0  9991
2 41103   0.3221  98.9195 0004387 164.4975 217.6896  1.00271864 11064
ELEKTRO-L 2             
1 41105U 15074A   18336.91021815 -.00000102  00000-0  00000-0 0  9990
2 41105   0.0546  46.4429 0001131 214.3121 214.6207  1.00270084 10912
COSMOS 2513             
1 41121U 15075A   18333.98556604 -.00000145  00000-0  00000-0 0  9999
2 41121   0.0693 106.6508 0004553 158.5838 238.6929  1.00272259 10963
EXPRESS-AMU1            
1 41191U 15082A   18336.28938084  .00000150  00000-0  00000+0 0  9990
2 41191   0.0058 294.0085 0002602 309.2457 328.1238  1.00271389 10895
GAOFEN 4                
1 41194U 15083A   18337.60721059 -.00000338  00000-0  00000+0 0  9992
2 41194   0.0228 290.9385 0005146 308.5894 157.1642  1.00268148 10896
BELINTERSAT-1           
1 41238U 16001A   18336.65848155  .00000101  00000-0  00000+0 0  9990
2 41238   0.0505  71.2488 0001556 155.6812 133.0712  1.00269757 10651
IRNSS-1E                
1 41241U 16003A   18335.78685407 -.00000277  00000-0  00000+0 0  9993
2 41241  28.8979 105.5959 0021284 179.0053 180.9298  1.00278093 10573
INTELSAT 29E (IS-29E)   
1 41308U 16004A   18336.93965309 -.00000287  00000-0  00000+0 0  9999
2 41308   0.0173 264.4695 0001348 342.1971 113.3334  1.00273246 10552
EUTELSAT 9B             
1 41310U 16005A   18336.77606541  .00000057  00000-0  00000-0 0  9990
2 41310   0.0799  85.1819 0005569 194.9813  79.7880  1.00272993 10506
SES-9                   
1 41380U 16013A   18336.50113372 -.00000351  00000-0  00000-0 0  9990
2 41380   0.0230 282.8271 0000235 235.9456 201.2427  1.00270874  9867
EUTELSAT 65 WEST A      
1 41382U 16014A   18336.98171845 -.00000281  00000-0  00000+0 0  9995
2 41382   0.0744  56.6937 0001808 203.7079  99.5919  1.00272988 10040
IRNSS-1F                
1 41384U 16015A   18336.40406066  .00000155  00000-0  00000+0 0  9990
2 41384   3.0851 248.7642 0018127 182.9210 177.4062  1.00270896 10083
IRNSS-1G                
1 41469U 16027A   18337.13809419 -.00000339  00000-0  00000+0 0  9992
2 41469   3.1411 250.7047 0003286 222.4161 137.8984  1.00264366  9599
JCSAT 2B                
1 41471U 16028A   18337.37176011 -.00000170  00000-0  00000+0 0  9990
2 41471   0.0193 329.9945 0001876 285.4185 104.5662  1.00268813  9482
THAICOM 8               
1 41552U 16031A   18336.58366333 -.00000127  00000-0  00000-0 0  9997
2 41552   0.0828  62.0516 0001917 277.5026  20.4523  1.00269159  9114
INTELSAT 31 (IS-31)     
1 41581U 16035A   18337.06445006 -.00000156  00000-0  00000+0 0  9993
2 41581   0.0221 264.9163 0002804 299.3669 155.7176  1.00271393  9091
BD-2-G7                 
1 41586U 16037A   18337.60985580 -.00000358  00000-0  00000+0 0  9990
2 41586   0.7374  13.5361 0008633  12.6207  16.3020  1.00266482  9194
ABS-2A (MONGOLSAT-1)    
1 41588U 16038A   18336.59416843 -.00000089  00000-0  00000-0 0  9993
2 41588   0.0190 322.1919 0001043 188.1702 209.6438  1.00268730  9110
EUTELSAT 117 WEST B     
1 41589U 16038B   18337.12524063 -.00000017  00000-0  00000+0 0  9998
2 41589   0.0069 156.8834 0000204  77.8433 125.2854  1.00272972  9104
BRISAT                  
1 41591U 16039A   18336.38415888 -.00000202  00000-0  00000-0 0  9990
2 41591   0.0182 310.2874 0002000 301.3078 108.3975  1.00270851  9019
ECHOSTAR 18             
1 41592U 16039B   18336.97111573 -.00000287  00000-0  00000+0 0  9992
2 41592   0.0173 331.1350 0001447 288.8663  99.9824  1.00269337  9020
TIANTONG-1 1            
1 41725U 16048A   18336.98618971 -.00000326  00000-0  00000-0 0  9990
2 41725   3.8133 327.3707 0005829 343.8458 217.0319  1.00269843  8663
JCSAT-16                
1 41729U 16050A   18337.39936193 -.00000255  00000-0  00000+0 0  9992
2 41729   0.0505  95.3750 0001074 266.7506 357.8888  1.00270421  8471
INTELSAT 36 (IS-36)     
1 41747U 16053A   18336.61143908 -.00000030  00000-0  00000-0 0  9995
2 41747   0.0114 345.8274 0001457  28.3351 345.8560  1.00271054  8361
INTELSAT 33E (IS-33E)   
1 41748U 16053B   18336.63488701  .00000043  00000-0  00000-0 0  9994
2 41748   0.0222 358.6997 0002248 252.3321 108.9581  1.00272850  8659
INSAT-3DR               
1 41752U 16054A   18336.59586117 -.00000082  00000-0  00000+0 0  9998
2 41752   0.1183  99.3527 0013221 170.3505  90.1591  1.00271226  8193
GSAT-18                 
1 41793U 16060A   18336.59612634 -.00000082  00000-0  00000-0 0  9995
2 41793   0.0179 306.9728 0001642 300.5592 112.4505  1.00270158  7936
SKY MUSTER 2            
1 41794U 16060B   18336.39998918 -.00000250  00000-0  00000-0 0  9993
2 41794   0.0154 306.7273 0001473 307.4805 105.7904  1.00272056  7913
HIMAWARI-9              
1 41836U 16064A   18337.40843519 -.00000279  00000-0  00000+0 0  9993
2 41836   0.0507 122.7472 0000632 152.7614  84.4981  1.00272698  7701
SHIJIAN-17 (SJ-17)      
1 41838U 16065A   18337.75166378 -.00000265  00000-0  00000+0 0  9990
2 41838   0.3206  99.2753 0001808 211.2518 126.7093  1.00265827  7634
GOES 16                 
1 41866U 16071A   18337.00940901 -.00000253  00000-0  00000+0 0  9995
2 41866   0.0015  96.4243 0000261 200.5833  62.9897  1.00271017  7503
TIANLIAN 1-04           
1 41869U 16072A   18337.48419213 -.00000112  00000-0  00000+0 0  9992
2 41869   1.5153 285.6391 0009229 164.7865 233.2665  1.00270811  7710
FENGYUN 4A              
1 41882U 16077A   18336.91543454 -.00000334  00000-0  00000-0 0  9991
2 41882   0.0909 289.5648 0002929 175.8458  40.4339  1.00266885  7371
ECHOSTAR 19             
1 41893U 16079A   18337.07012070 -.00000143  00000-0  00000+0 0  9995
2 41893   0.0197 327.3686 0001309 285.6271 106.9900  1.00269473  7131
JCSAT-15                
1 41903U 16082A   18336.49622674 -.00000356  00000-0  00000+0 0  9999
2 41903   0.0157 288.2394 0001546   7.8574  63.9016  1.00270986  7178
STAR ONE D1             
1 41904U 16082B   18336.03648798 -.00000217  00000-0  00000-0 0  9992
2 41904   0.0281  89.6124 0002944 170.9171  99.4518  1.00273054  7168
TJS-2                   
1 41911U 17001A   18336.91595795 -.00000348  00000-0  00000-0 0  9992
2 41911   0.4826  96.0914 0003569 221.2582 191.5797  1.00275347  7120
HISPASAT 36W-1          
1 41942U 17006A   18336.90082479 -.00000250  00000-0  00000+0 0  9991
2 41942   0.0103 276.2105 0001176 338.2096 105.5669  1.00270678  6925
TELKOM 3S               
1 41944U 17007A   18337.47146363 -.00000367  00000-0  00000+0 0  9999
2 41944   0.0223 308.8844 0002191 302.9860 108.1058  1.00269783  6619
INTELSAT 32E (IS-32E)   
1 41945U 17007B   18336.92075737 -.00000274  00000-0  00000+0 0  9992
2 41945   0.0223 320.7159 0000237 203.7594 195.5255  1.00269671  6641
ECHOSTAR 23             
1 42070U 17014A   18335.92823651 -.00000279  00000-0  00000-0 0  9991
2 42070   0.0210 318.2263 0001996 288.0817 113.6711  1.00269671  6325
SES-10                  
1 42432U 17017A   18336.98640516 -.00000278  00000-0  00000+0 0  9998
2 42432   0.0102   2.5069 0002528 252.1196 105.3596  1.00271311  6174
